LDPE-1                  
1 49818U 21118B   26087.91685833  .00000025  00000+0  00000+0 0  9994
2 49818   5.2954  66.5729 0000983  32.7099 135.9196  0.98908303 15844
EXPRESS AMU-7           
1 50001U 21123A   26087.93000718 -.00000262  00000+0  00000+0 0  9995
2 50001   0.0215 219.4576 0000166 111.1404 335.5337  1.00271722 15732
EXPRESS AMU-3           
1 50002U 21123B   26087.19821799 -.00000341  00000+0  00000+0 0  9992
2 50002   0.0171 229.8195 0000196  48.5209  81.6340  1.00272369  6220
TIANLIAN 2-02           
1 50005U 21124A   26087.86381811 -.00000034  00000+0  00000+0 0  9995
2 50005   0.5936  87.4560 0004060 214.1284   6.6013  1.00271416 15810
TURKSAT 5B              
1 50212U 21126A   26087.62435370  .00000126  00000+0  00000+0 0  9992
2 50212   0.0780 334.4024 0005280   1.0493 117.3355  1.00271876 15495
INMARSAT 6-F1           
1 50319U 21128A   26087.49002589 -.00000191  00000+0  00000+0 0  9992
2 50319   0.0033 166.6662 0000063 186.5348  92.8467  1.00270457 15449
SHIYAN-12 01 (SY-12 01) 
1 50321U 21129A   26087.70754308 -.00000376  00000+0  00000+0 0  9998
2 50321   3.4676  80.9876 0003546 255.7540 226.8742  1.00083498 15698
SHIYAN-12 02 (SY-12 02) 
1 50322U 21129B   26087.69308068  .00000138  00000+0  00000+0 0  9990
2 50322   3.4677  81.0026 0000049 129.5730 253.9232  1.00458419 15697
TJS-9                   
1 50574U 21135A   26087.92844718 -.00000318  00000+0  00000+0 0  9990
2 50574   0.0845 278.5259 0003151 143.1715 236.0538  1.00274876 15626
GOES 18                 
1 51850U 22021A   26087.73156086  .00000077  00000+0  00000+0 0  9997
2 51850   0.0455  18.7374 0000438  36.9621 256.7912  1.00272342  5780
ZHONGXING-6D            
1 52255U 22038A   26087.13705054 -.00000373  00000+0  00000+0 0  9994
2 52255   0.0520 254.6778 0002077  74.3325  30.9541  1.00271200 14614
NILESAT 301             
1 52817U 22061A   26087.89987159  .00000000  00000+0  00000+0 0  9991
2 52817   0.0250  32.6839 0005783 332.5255 138.0694  1.00270615 13930
CMS-02 (GSAT 24)        
1 52903U 22067A   26087.91772500 -.00000184  00000+0  00000+0 0  9992
2 52903   0.0274 117.7815 0002224 196.9133 284.9953  1.00271638 13806
MEASAT 3D               
1 52904U 22067B   26087.91937168 -.00000261  00000+0  00000+0 0  9992
2 52904   0.0466 356.2309 0002958 347.0793 265.4771  1.00270459 13849
SES-22                  
1 52933U 22071A   26087.73112751  .00000085  00000+0  00000+0 0  9995
2 52933   0.0204  96.9773 0001358 269.9019 303.4439  1.00273380  6718
WFOV (USA 332)          
1 52940U 22073A   26087.90461389 -.00000379  00000+0  00000+0 0  9995
2 52940   3.5057  79.5382 0001776 233.9279 317.7513  1.00269640 13562
TIANLIAN 2-03           
1 53100U 22078A   26087.35669537  .00000053  00000+0  00000+0 0  9991
2 53100   0.4655  74.2663 0003010 267.9175 342.5541  1.00272915 13735
