[{"OBJECT_NAME":"LDPE-1","OBJECT_ID":"2021-118B","EPOCH":"2026-03-28T22:00:16.559712","MEAN_MOTION":0.98908303,"ECCENTRICITY":9.835e-5,"INCLINATION":5.2954,"RA_OF_ASC_NODE":66.5729,"ARG_OF_PERICENTER":32.7099,"MEAN_ANOMALY":135.9196,"EPHEMERIS_TYPE":0,"CLASSIFICATION_TYPE":"U","NORAD_CAT_ID":49818,"ELEMENT_SET_NO":999,"REV_AT_EPOCH":1584,"BSTAR":0,"MEAN_MOTION_DOT":2.5e-7,"MEAN_MOTION_DDOT":0},{"OBJECT_NAME":"EXPRESS AMU-7","OBJECT_ID":"2021-123A","EPOCH":"2026-03-28T22:19:12.620352","MEAN_MOTION":1.00271722,"ECCENTRICITY":1.663e-5,"INCLINATION":0.0215,"RA_OF_ASC_NODE":219.4576,"ARG_OF_PERICENTER":111.1404,"MEAN_ANOMALY":335.5337,"EPHEMERIS_TYPE":0,"CLASSIFICATION_TYPE":"U","NORAD_CAT_ID":50001,"ELEMENT_SET_NO":999,"REV_AT_EPOCH":1573,"BSTAR":0,"MEAN_MOTION_DOT":-2.62e-6,"MEAN_MOTION_DDOT":0},{"OBJECT_NAME":"EXPRESS AMU-3","OBJECT_ID":"2021-123B","EPOCH":"2026-03-28T04:45:26.034336","MEAN_MOTION":1.00272369,"ECCENTRICITY":1.96e-5,"INCLINATION":0.0171,"RA_OF_ASC_NODE":229.8195,"ARG_OF_PERICENTER":48.5209,"MEAN_ANOMALY":81.634,"EPHEMERIS_TYPE":0,"CLASSIFICATION_TYPE":"U","NORAD_CAT_ID":50002,"ELEMENT_SET_NO":999,"REV_AT_EPOCH":622,"BSTAR":0,"MEAN_MOTION_DOT":-3.41e-6,"MEAN_MOTION_DDOT":0},{"OBJECT_NAME":"TIANLIAN 2-02","OBJECT_ID":"2021-124A","EPOCH":"2026-03-28T20:43:53.884704","MEAN_MOTION":1.00271416,"ECCENTRICITY":0.00040603,"INCLINATION":0.5936,"RA_OF_ASC_NODE":87.456,"ARG_OF_PERICENTER":214.1284,"MEAN_ANOMALY":6.6013,"EPHEMERIS_TYPE":0,"CLASSIFICATION_TYPE":"U","NORAD_CAT_ID":50005,"ELEMENT_SET_NO":999,"REV_AT_EPOCH":1581,"BSTAR":0,"MEAN_MOTION_DOT":-3.4e-7,"MEAN_MOTION_DDOT":0},{"OBJECT_NAME":"TURKSAT 5B","OBJECT_ID":"2021-126A","EPOCH":"2026-03-28T14:59:04.159680","MEAN_MOTION":1.00271876,"ECCENTRICITY":0.000528,"INCLINATION":0.078,"RA_OF_ASC_NODE":334.4024,"ARG_OF_PERICENTER":1.0493,"MEAN_ANOMALY":117.3355,"EPHEMERIS_TYPE":0,"CLASSIFICATION_TYPE":"U","NORAD_CAT_ID":50212,"ELEMENT_SET_NO":999,"REV_AT_EPOCH":1549,"BSTAR":0,"MEAN_MOTION_DOT":1.26e-6,"MEAN_MOTION_DDOT":0},{"OBJECT_NAME":"INMARSAT 6-F1","OBJECT_ID":"2021-128A","EPOCH":"2026-03-28T11:45:38.236896","MEAN_MOTION":1.00270457,"ECCENTRICITY":6.3e-6,"INCLINATION":0.0033,"RA_OF_ASC_NODE":166.6662,"ARG_OF_PERICENTER":186.5348,"MEAN_ANOMALY":92.8467,"EPHEMERIS_TYPE":0,"CLASSIFICATION_TYPE":"U","NORAD_CAT_ID":50319,"ELEMENT_SET_NO":999,"REV_AT_EPOCH":1544,"BSTAR":0,"MEAN_MOTION_DOT":-1.91e-6,"MEAN_MOTION_DDOT":0},{"OBJECT_NAME":"SHIYAN-12 01 (SY-12 01)","OBJECT_ID":"2021-129A","EPOCH":"2026-03-28T16:58:51.722112","MEAN_MOTION":1.00083498,"ECCENTRICITY":0.0003546,"INCLINATION":3.4676,"RA_OF_ASC_NODE":80.9876,"ARG_OF_PERICENTER":255.754,"MEAN_ANOMALY":226.8742,"EPHEMERIS_TYPE":0,"CLASSIFICATION_TYPE":"U","NORAD_CAT_ID":50321,"ELEMENT_SET_NO":999,"REV_AT_EPOCH":1569,"BSTAR":0,"MEAN_MOTION_DOT":-3.76e-6,"MEAN_MOTION_DDOT":0},{"OBJECT_NAME":"SHIYAN-12 02 (SY-12 02)","OBJECT_ID":"2021-129B","EPOCH":"2026-03-28T16:38:02.170752","MEAN_MOTION":1.00458419,"ECCENTRICITY":4.9e-6,"INCLINATION":3.4677,"RA_OF_ASC_NODE":81.0026,"ARG_OF_PERICENTER":129.573,"MEAN_ANOMALY":253.9232,"EPHEMERIS_TYPE":0,"CLASSIFICATION_TYPE":"U","NORAD_CAT_ID":50322,"ELEMENT_SET_NO":999,"REV_AT_EPOCH":1569,"BSTAR":0,"MEAN_MOTION_DOT":1.38e-6,"MEAN_MOTION_DDOT":0},{"OBJECT_NAME":"TJS-9","OBJECT_ID":"2021-135A","EPOCH":"2026-03-28T22:16:57.836352","MEAN_MOTION":1.00274876,"ECCENTRICITY":0.00031512,"INCLINATION":0.0845,"RA_OF_ASC_NODE":278.5259,"ARG_OF_PERICENTER":143.1715,"MEAN_ANOMALY":236.0538,"EPHEMERIS_TYPE":0,"CLASSIFICATION_TYPE":"U","NORAD_CAT_ID":50574,"ELEMENT_SET_NO":999,"REV_AT_EPOCH":1562,"BSTAR":0,"MEAN_MOTION_DOT":-3.18e-6,"MEAN_MOTION_DDOT":0},{"OBJECT_NAME":"GOES 18","OBJECT_ID":"2022-021A","EPOCH":"2026-03-28T17:33:26.858304","MEAN_MOTION":1.00272342,"ECCENTRICITY":4.383e-5,"INCLINATION":0.0455,"RA_OF_ASC_NODE":18.7374,"ARG_OF_PERICENTER":36.9621,"MEAN_ANOMALY":256.7912,"EPHEMERIS_TYPE":0,"CLASSIFICATION_TYPE":"U","NORAD_CAT_ID":51850,"ELEMENT_SET_NO":999,"REV_AT_EPOCH":578,"BSTAR":0,"MEAN_MOTION_DOT":7.7e-7,"MEAN_MOTION_DDOT":0},{"OBJECT_NAME":"ZHONGXING-6D","OBJECT_ID":"2022-038A","EPOCH":"2026-03-28T03:17:21.166656","MEAN_MOTION":1.002712,"ECCENTRICITY":0.00020771,"INCLINATION":0.052,"RA_OF_ASC_NODE":254.6778,"ARG_OF_PERICENTER":74.3325,"MEAN_ANOMALY":30.9541,"EPHEMERIS_TYPE":0,"CLASSIFICATION_TYPE":"U","NORAD_CAT_ID":52255,"ELEMENT_SET_NO":999,"REV_AT_EPOCH":1461,"BSTAR":0,"MEAN_MOTION_DOT":-3.73e-6,"MEAN_MOTION_DDOT":0},{"OBJECT_NAME":"NILESAT 301","OBJECT_ID":"2022-061A","EPOCH":"2026-03-28T21:35:48.905376","MEAN_MOTION":1.00270615,"ECCENTRICITY":0.00057832,"INCLINATION":0.025,"RA_OF_ASC_NODE":32.6839,"ARG_OF_PERICENTER":332.5255,"MEAN_ANOMALY":138.0694,"EPHEMERIS_TYPE":0,"CLASSIFICATION_TYPE":"U","NORAD_CAT_ID":52817,"ELEMENT_SET_NO":999,"REV_AT_EPOCH":1393,"BSTAR":0,"MEAN_MOTION_DOT":0,"MEAN_MOTION_DDOT":0},{"OBJECT_NAME":"CMS-02 (GSAT 24)","OBJECT_ID":"2022-067A","EPOCH":"2026-03-28T22:01:31.440000","MEAN_MOTION":1.00271638,"ECCENTRICITY":0.00022249,"INCLINATION":0.0274,"RA_OF_ASC_NODE":117.7815,"ARG_OF_PERICENTER":196.9133,"MEAN_ANOMALY":284.9953,"EPHEMERIS_TYPE":0,"CLASSIFICATION_TYPE":"U","NORAD_CAT_ID":52903,"ELEMENT_SET_NO":999,"REV_AT_EPOCH":1380,"BSTAR":0,"MEAN_MOTION_DOT":-1.84e-6,"MEAN_MOTION_DDOT":0},{"OBJECT_NAME":"MEASAT 3D","OBJECT_ID":"2022-067B","EPOCH":"2026-03-28T22:03:53.713152","MEAN_MOTION":1.00270459,"ECCENTRICITY":0.00029588,"INCLINATION":0.0466,"RA_OF_ASC_NODE":356.2309,"ARG_OF_PERICENTER":347.0793,"MEAN_ANOMALY":265.4771,"EPHEMERIS_TYPE":0,"CLASSIFICATION_TYPE":"U","NORAD_CAT_ID":52904,"ELEMENT_SET_NO":999,"REV_AT_EPOCH":1384,"BSTAR":0,"MEAN_MOTION_DOT":-2.61e-6,"MEAN_MOTION_DDOT":0},{"OBJECT_NAME":"SES-22","OBJECT_ID":"2022-071A","EPOCH":"2026-03-28T17:32:49.416864","MEAN_MOTION":1.0027338,"ECCENTRICITY":0.0001358,"INCLINATION":0.0204,"RA_OF_ASC_NODE":96.9773,"ARG_OF_PERICENTER":269.9019,"MEAN_ANOMALY":303.4439,"EPHEMERIS_TYPE":0,"CLASSIFICATION_TYPE":"U","NORAD_CAT_ID":52933,"ELEMENT_SET_NO":999,"REV_AT_EPOCH":671,"BSTAR":0,"MEAN_MOTION_DOT":8.5e-7,"MEAN_MOTION_DDOT":0},{"OBJECT_NAME":"WFOV (USA 332)","OBJECT_ID":"2022-073A","EPOCH":"2026-03-28T21:42:38.640096","MEAN_MOTION":1.0026964,"ECCENTRICITY":0.00017767,"INCLINATION":3.5057,"RA_OF_ASC_NODE":79.5382,"ARG_OF_PERICENTER":233.9279,"MEAN_ANOMALY":317.7513,"EPHEMERIS_TYPE":0,"CLASSIFICATION_TYPE":"U","NORAD_CAT_ID":52940,"ELEMENT_SET_NO":999,"REV_AT_EPOCH":1356,"BSTAR":0,"MEAN_MOTION_DOT":-3.79e-6,"MEAN_MOTION_DDOT":0},{"OBJECT_NAME":"TIANLIAN 2-03","OBJECT_ID":"2022-078A","EPOCH":"2026-03-28T08:33:38.479968","MEAN_MOTION":1.00272915,"ECCENTRICITY":0.00030103,"INCLINATION":0.4655,"RA_OF_ASC_NODE":74.2663,"ARG_OF_PERICENTER":267.9175,"MEAN_ANOMALY":342.5541,"EPHEMERIS_TYPE":0,"CLASSIFICATION_TYPE":"U","NORAD_CAT_ID":53100,"ELEMENT_SET_NO":999,"REV_AT_EPOCH":1373,"BSTAR":0,"MEAN_MOTION_DOT":5.3e-7,"MEAN_MOTION_DDOT":0}]
